     3.04           NAVIGATION DATA     MIXED               RINEX VERSION / TYPE
MergeMNfile.tcl     IGS                 20201002 042056 GMT PGM / RUN BY / DATE
gfzrnx-1.13-7761    FILE MERGE          20200517 000207 UTC COMMENT
GAL    3.4500e+01  1.6406e-01  7.2021e-03  0.0000e+00       IONOSPHERIC CORR
GPSA   7.4506e-09  2.2352e-08 -5.9605e-08 -1.1921e-07       IONOSPHERIC CORR
GPSB   8.6016e+04  8.1920e+04 -1.3107e+05 -5.2429e+05       IONOSPHERIC CORR
GAGP  0.0000000000E+00-6.217248938E-15 518400 2105          TIME SYSTEM CORR
GAUT -1.8626451492E-09 8.881784197E-16 518400 2105          TIME SYSTEM CORR
GPUT -2.7939677238E-09-2.664535259E-15 147456 2106          TIME SYSTEM CORR
    18    18  1929     7GPS                                 LEAP SECONDS
                                                            COMMENT
   ------------------------------------------------------   COMMENT
      # of NAV. EPOCHS based on # of FILE CONTRIBUTIONS     COMMENT
   ------------------------------------------------------   COMMENT
                                                            COMMENT
BRD_HD  PRN T    =1   <5  <10  <15  <25  <50 >=50    #EPO   COMMENT
BRD_LN  -------------------------------------------------   COMMENT
BRD_STK E01 F     6    1    1    .    1    .    .       9   COMMENT
BRD_STK E01 I     6    1    1    .    1    .    .       9   COMMENT
BRD_STK E02 F    26   10    2    .    .    .    .      38   COMMENT
BRD_STK E02 I    26   10    2    .    .    .    .      38   COMMENT
BRD_STK E03 F    28   11    1    .    .    .    .      40   COMMENT
BRD_STK E03 I    30   11    1    .    .    .    .      42   COMMENT
BRD_STK E04 F     7    4    1    1    .    .    .      13   COMMENT
BRD_STK E04 I     8    4    1    1    .    .    .      14   COMMENT
BRD_STK E05 F    22    9    2    .    .    .    .      33   COMMENT
BRD_STK E05 I    23    9    2    .    .    .    .      34   COMMENT
BRD_STK E07 F    27    7    1    1    .    .    .      36   COMMENT
BRD_STK E07 I    27    7    1    1    .    .    .      36   COMMENT
BRD_STK E08 F    33   11    2    .    .    .    .      46   COMMENT
BRD_STK E08 I    33   11    2    .    .    .    .      46   COMMENT
BRD_STK E09 F    33    7    1    1    .    .    .      42   COMMENT
BRD_STK E09 I    33    7    1    1    .    .    .      42   COMMENT
BRD_STK E11 F    13    5    1    1    .    .    .      20   COMMENT
BRD_STK E11 I    13    5    1    1    .    .    .      20   COMMENT
BRD_STK E12 F    26    4    1    .    1    .    .      32   COMMENT
BRD_STK E12 I    26    4    1    .    1    .    .      32   COMMENT
BRD_STK E13 F    11    7    .    .    1    .    .      19   COMMENT
BRD_STK E13 I    11    7    .    .    1    .    .      19   COMMENT
BRD_STK E15 F    17    7    1    1    .    .    .      26   COMMENT
BRD_STK E15 I    17    7    1    1    .    .    .      26   COMMENT
BRD_STK E19 F     6    1    .    .    1    .    .       8   COMMENT
BRD_STK E19 I     6    1    .    .    1    .    .       8   COMMENT
BRD_STK E21 F     8    3    1    .    1    .    .      13   COMMENT
BRD_STK E21 I     8    3    1    .    1    .    .      13   COMMENT
BRD_STK E22 F     .    .    .    .    1    .    .       1   COMMENT
BRD_STK E22 I     .    .    .    .    1    .    .       1   COMMENT
BRD_STK E24 F    26    7    .    .    1    .    .      34   COMMENT
BRD_STK E24 I    26    7    .    .    1    .    .      34   COMMENT
BRD_STK E25 F    15   10    .    1    .    .    .      26   COMMENT
BRD_STK E25 I    15   10    .    1    .    .    .      26   COMMENT
BRD_STK E26 F    28    6    .    .    1    .    .      35   COMMENT
BRD_STK E26 I    28    6    .    .    1    .    .      35   COMMENT
BRD_STK E27 F    22    5    1    1    .    .    .      29   COMMENT
BRD_STK E27 I    23    5    1    1    .    .    .      30   COMMENT
BRD_STK E30 F    40    8    2    .    .    .    .      50   COMMENT
BRD_STK E30 I    40    8    2    .    .    .    .      50   COMMENT
BRD_STK E31 F    13    4    .    .    1    .    .      18   COMMENT
BRD_STK E31 I    12    5    .    .    1    .    .      18   COMMENT
BRD_STK E33 F    15    3    1    .    1    .    .      20   COMMENT
BRD_STK E33 I    15    3    1    .    1    .    .      20   COMMENT
BRD_STK E36 F    16    4    1    1    .    .    .      22   COMMENT
BRD_STK E36 I    15    5    1    1    .    .    .      22   COMMENT
BRD_LN  -------------------------------------------------   COMMENT
BRD_SYS E   F                                         610   COMMENT
BRD_SYS E   I                                         615   COMMENT
BRD_LN  -------------------------------------------------   COMMENT
BRD_SYS E   -                                        1225   COMMENT
                                                            COMMENT
BRD_HD  PRN T    =1   <5  <10  <15  <25  <50 >=50    #EPO   COMMENT
BRD_LN  -------------------------------------------------   COMMENT
BRD_STK G01 _     1    5    1    1    .    .    .       8   COMMENT
BRD_STK G02 _     1    6    1    1    .    .    .       9   COMMENT
BRD_STK G03 _     1    5    .    .    1    .    .       7   COMMENT
BRD_STK G04 _     1    5    .    .    1    .    .       7   COMMENT
BRD_STK G05 _     1    5    1    1    .    .    .       8   COMMENT
BRD_STK G06 _     1    5    1    1    .    .    .       8   COMMENT
BRD_STK G07 _     1    3    1    1    .    .    .       6   COMMENT
BRD_STK G08 _     .    7    .    1    .    .    .       8   COMMENT
BRD_STK G09 _     1    4    .    .    1    .    .       6   COMMENT
BRD_STK G10 _     .    4    3    .    .    .    .       7   COMMENT
BRD_STK G11 _     .    6    .    1    .    .    .       7   COMMENT
BRD_STK G12 _     .    4    1    1    .    .    .       6   COMMENT
BRD_STK G13 _     .    6    2    .    .    .    .       8   COMMENT
BRD_STK G14 _     .    7    2    .    .    .    .       9   COMMENT
BRD_STK G15 _     .    7    2    .    .    .    .       9   COMMENT
BRD_STK G16 _     1    4    1    1    .    .    .       7   COMMENT
BRD_STK G17 _     .    7    .    1    .    .    .       8   COMMENT
BRD_STK G18 _     .    5    2    .    .    .    .       7   COMMENT
BRD_STK G19 _     .    7    1    1    .    .    .       9   COMMENT
BRD_STK G20 _     .    4    3    .    .    .    .       7   COMMENT
BRD_STK G21 _     .    3    1    1    .    .    .       5   COMMENT
BRD_STK G22 _     2    4    .    .    1    .    .       7   COMMENT
BRD_STK G23 _     .    .    .    .    1    .    .       1   COMMENT
BRD_STK G24 _     .    4    3    .    .    .    .       7   COMMENT
BRD_STK G25 _     .    4    2    .    .    .    .       6   COMMENT
BRD_STK G26 _     1    5    1    1    .    .    .       8   COMMENT
BRD_STK G27 _     .    5    1    1    .    .    .       7   COMMENT
BRD_STK G28 _     .    6    1    1    .    .    .       8   COMMENT
BRD_STK G29 _     .    3    1    1    .    .    .       5   COMMENT
BRD_STK G30 _     2    3    .    .    1    .    .       6   COMMENT
BRD_STK G31 _     .    7    1    1    .    .    .       9   COMMENT
BRD_STK G32 _     1    6    2    .    .    .    .       9   COMMENT
BRD_LN  -------------------------------------------------   COMMENT
BRD_SYS G   -                                         229   COMMENT
                                                            COMMENT
BRD_HD  PRN T    =1   <5  <10  <15  <25  <50 >=50    #EPO   COMMENT
BRD_LN  -------------------------------------------------   COMMENT
BRD_STK R01 _    13    9    1    1    .    .    .      24   COMMENT
BRD_STK R02 _     9   10    2    .    .    .    .      21   COMMENT
BRD_STK R03 _     8   11    2    .    .    .    .      21   COMMENT
BRD_STK R04 _     8    8    3    .    .    .    .      19   COMMENT
BRD_STK R05 _     9    8    2    .    .    .    .      19   COMMENT
BRD_STK R06 _    10    9    2    .    .    .    .      21   COMMENT
BRD_STK R07 _    12    9    2    .    .    .    .      23   COMMENT
BRD_STK R08 _    13    9    2    .    .    .    .      24   COMMENT
BRD_STK R09 _    12   10    1    1    .    .    .      24   COMMENT
BRD_STK R10 _    12    9    1    1    .    .    .      23   COMMENT
BRD_STK R11 _    12    9    2    .    .    .    .      23   COMMENT
BRD_STK R12 _     9   10    2    .    .    .    .      21   COMMENT
BRD_STK R13 _     6    5    1    1    .    .    .      13   COMMENT
BRD_STK R14 _     9    9    2    .    .    .    .      20   COMMENT
BRD_STK R15 _     9    8    2    .    .    .    .      19   COMMENT
BRD_STK R16 _    12   10    1    1    .    .    .      24   COMMENT
BRD_STK R17 _    11    9    2    .    .    .    .      22   COMMENT
BRD_STK R18 _     9    9    2    .    .    .    .      20   COMMENT
BRD_STK R19 _     5    5    1    1    .    .    .      12   COMMENT
BRD_STK R20 _     6    9    .    1    .    .    .      16   COMMENT
BRD_STK R21 _    10   11    .    1    .    .    .      22   COMMENT
BRD_STK R22 _    11   10    1    1    .    .    .      23   COMMENT
BRD_STK R23 _    12    9    1    1    .    .    .      23   COMMENT
BRD_STK R24 _    13    8    1    1    .    .    .      23   COMMENT
BRD_LN  -------------------------------------------------   COMMENT
BRD_SYS R   -                                         500   COMMENT
                                                            COMMENT
BRD_LN  -------------------------------------------------   COMMENT
BRD_ALL                                              1954   COMMENT
                                                            COMMENT
                                                            END OF HEADER
E01 2020 05 16 00 10 00-8.573044906370E-04-7.958078640513E-12 0.000000000000E+00
     9.700000000000E+01 2.140625000000E+01 2.881905757228E-09-7.706628025477E-01
     1.022592186928E-06 8.040771353990E-05 5.146488547325E-06 5.440599456787E+03
     5.190000000000E+05-5.960464477539E-08 9.537194534205E-01 3.911554813385E-08
     9.829595197524E-01 2.410625000000E+02 1.537171327367E+00-5.523801517077E-09
    -1.903650723265E-10 2.580000000000E+02 2.105000000000E+03
     3.120000000000E+00 0.000000000000E+00-1.629814505577E-09 0.000000000000E+00
     5.197400000000E+05
